NORAD_CAT_ID,OBJECT_NAME,OBJECT_TYPE,EPOCH,MEAN_MOTION,ECCENTRICITY,INCLINATION,RA_OF_ASC_NODE,ARG_OF_PERICENTER,MEAN_ANOMALY,BSTAR,MEAN_MOTION_DOT,MEAN_MOTION_DDOT,TLE_LINE0,TLE_LINE1,TLE_LINE2,SEMIMAJOR_AXIS,PERIOD,APOGEE,PERIGEE,DECAYED
53605.0,STARLINK-4693,PAYLOAD,2023-03-24 06:59:59,15.08878648,0.0001441,53.2164,58.4791,104.7153,255.3999,0.00099803,0.00015648,0.0,0 STARLINK-4693,1 53605U 22104T   23083.29165934  .00015648  00000-0  99803-3 0  9999,2 53605  53.2164  58.4791 0001441 104.7153 255.3999 15.08878648 32368,6917.762,95.435,540.624,538.63,0.0
53605.0,STARLINK-4693,PAYLOAD,2023-03-25 03:40:00,15.08845896,0.0001566,53.217,54.6131,120.3869,239.7278,4.4694e-05,4.23e-06,0.0,0 STARLINK-4693,1 53605U 22104T   23084.15278122  .00000423  00000-0  44694-4 0  9993,2 53605  53.2170  54.6131 0001566 120.3869 239.7278 15.08845896 31800,6917.862,95.437,540.811,538.644,0.0
53605.0,STARLINK-4693,PAYLOAD,2023-03-25 08:26:09,15.08853201,0.0001143,53.216,53.7202,95.2882,264.8241,0.00024274,3.579e-05,0.0,0 STARLINK-4693,1 53605U 22104T   23084.35150052  .00003579  00000-0  24274-3 0  9992,2 53605  53.2160  53.7202 0001143  95.2882 264.8241 15.08853201 32522,6917.84,95.437,540.496,538.914,0.0
53605.0,STARLINK-4693,PAYLOAD,2023-03-26 05:06:11,15.0883333,0.0001334,53.2181,49.858,89.7677,270.3468,-1.5218e-05,-5.3e-06,0.0,0 STARLINK-4693,1 53605U 22104T   23085.21262956 -.00000530  00000-0 -15218-4 0  9990,2 53605  53.2181  49.8580 0001334  89.7677 270.3468 15.08833330 31963,6917.901,95.438,540.689,538.843,0.0
53605.0,STARLINK-4693,PAYLOAD,2023-03-26 09:52:20,15.08841899,0.0001193,53.2171,48.9638,100.3787,259.734,0.00073601,0.00011446,0.0,0 STARLINK-4693,1 53605U 22104T   23085.41134769  .00011446  00000-0  73601-3 0  9997,2 53605  53.2171  48.9638 0001193 100.3787 259.7340 15.08841899 31993,6917.875,95.437,540.565,538.914,0.0
53605.0,STARLINK-4693,PAYLOAD,2023-03-27 04:56:58,15.08840463,0.000108,53.2174,45.3951,97.0302,263.0813,0.00031127,4.67e-05,0.0,0 STARLINK-4693,1 53605U 22104T   23086.20623104  .00004670  00000-0  31127-3 0  9999,2 53605  53.2174  45.3951 0001080  97.0302 263.0813 15.08840463 32119,6917.879,95.438,540.491,538.997,0.0
53605.0,STARLINK-4693,PAYLOAD,2023-03-27 06:32:21,15.08843066,0.0001091,53.217,45.0977,102.8541,257.2573,0.00067656,0.00010497,0.0,0 STARLINK-4693,1 53605U 22104T   23086.27247137  .00010497  00000-0  67656-3 0  9994,2 53605  53.2170  45.0977 0001091 102.8541 257.2573 15.08843066 32819,6917.871,95.437,540.491,538.981,0.0
53605.0,STARLINK-4693,PAYLOAD,2023-03-27 20:50:50,15.08844203,0.0001112,53.2168,42.4223,85.9076,274.2043,0.0004197,6.399e-05,0.0,0 STARLINK-4693,1 53605U 22104T   23086.86863486  .00006399  00000-0  41970-3 0  9997,2 53605  53.2168  42.4223 0001112  85.9076 274.2043 15.08844203 32904,6917.868,95.437,540.502,538.963,0.0
53605.0,STARLINK-4693,PAYLOAD,2023-03-28 06:23:08,15.08861902,0.00012,53.2174,40.637,95.591,264.5219,0.00097983,0.0001535,0.0,0 STARLINK-4693,1 53605U 22104T   23087.26606922  .00015350  00000-0  97983-3 0  9994,2 53605  53.2174  40.6370 0001200  95.5910 264.5219 15.08861902 32278,6917.813,95.436,540.509,538.848,0.0
53605.0,STARLINK-4693,PAYLOAD,2023-03-29 03:03:09,15.08857897,0.0001238,53.2169,36.7715,77.534,282.5791,0.00091079,0.00014244,0.0,0 STARLINK-4693,1 53605U 22104T   23088.12718947  .00014244  00000-0  91079-3 0  9992,2 53605  53.2169  36.7715 0001238  77.5340 282.5791 15.08857897 32407,6917.826,95.436,540.547,538.834,0.0
53605.0,STARLINK-4693,PAYLOAD,2023-03-30 01:18:33,15.08849042,0.0001124,53.2174,32.6086,97.0176,263.0944,0.0012266,0.00019292,0.0,0 STARLINK-4693,1 53605U 22104T   23089.05455226  .00019292  00000-0  12266-2 0  9991,2 53605  53.2174  32.6086 0001124  97.0176 263.0944 15.08849042 32549,6917.853,95.437,540.495,538.94,0.0
53605.0,STARLINK-4693,PAYLOAD,2023-03-30 06:04:42,15.0885641,0.0001102,53.2175,31.7164,99.361,260.7507,0.0013788,0.00021734,0.0,0 STARLINK-4693,1 53605U 22104T   23089.25327104  .00021734  00000-0  13788-2 0  9990,2 53605  53.2175  31.7164 0001102  99.3610 260.7507 15.08856410 33267,6917.83,95.437,540.458,538.933,0.0
53605.0,STARLINK-4693,PAYLOAD,2023-03-31 02:44:43,15.08855311,0.0001102,53.2176,27.8527,77.4701,282.6414,0.0018209,0.00028823,0.0,0 STARLINK-4693,1 53605U 22104T   23090.11439601  .00028823  00000-0  18209-2 0  9992,2 53605  53.2176  27.8527 0001102  77.4701 282.6414 15.08855311 32702,6917.834,95.437,540.461,538.936,0.0
53605.0,STARLINK-4693,PAYLOAD,2023-03-31 20:13:58,15.08837609,0.0001489,53.2168,24.5782,76.1047,284.011,0.001123,0.00017629,0.0,0 STARLINK-4693,1 53605U 22104T   23090.84303871  .00017629  00000-0  11230-2 0  9990,2 53605  53.2168  24.5782 0001489  76.1047 284.0110 15.08837609 32818,6917.888,95.438,540.783,538.723,0.0
53605.0,STARLINK-4693,PAYLOAD,2023-04-01 04:10:54,15.08849457,0.0001363,53.2183,23.0961,83.3262,276.7885,0.001228,0.00019315,0.0,0 STARLINK-4693,1 53605U 22104T   23091.17423786  .00019315  00000-0  12280-2 0  9995,2 53605  53.2183  23.0961 0001363  83.3262 276.7885 15.08849457 33551,6917.851,95.437,540.659,538.774,0.0
53605.0,STARLINK-4693,PAYLOAD,2023-04-01 18:29:22,15.08852256,0.0001817,53.2191,20.422,93.6257,266.4943,0.00083318,0.00013001,0.0,0 STARLINK-4693,1 53605U 22104T   23091.77039924  .00013001  00000-0  83318-3 0  9995,2 53605  53.2191  20.4220 0001817  93.6257 266.4943 15.08852256 32956,6917.843,95.437,540.965,538.451,0.0
53605.0,STARLINK-4693,PAYLOAD,2023-04-02 04:01:41,15.08858451,0.0001297,53.2178,18.6337,82.7895,277.3244,0.0014992,0.00023664,0.0,0 STARLINK-4693,1 53605U 22104T   23092.16783946  .00023664  00000-0  14992-2 0  9996,2 53605  53.2178  18.6337 0001297  82.7895 277.3244 15.08858451 33700,6917.824,95.436,540.586,538.792,0.0
53605.0,STARLINK-4693,PAYLOAD,2023-04-02 21:30:56,15.08841466,0.000153,53.2174,15.3641,73.0138,287.1022,0.00095092,0.00014879,0.0,0 STARLINK-4693,1 53605U 22104T   23092.89648466  .00014879  00000-0  95092-3 0  9992,2 53605  53.2174  15.3641 0001530  73.0138 287.1022 15.08841466 33814,6917.876,95.437,540.799,538.682,0.0
53605.0,STARLINK-4693,PAYLOAD,2023-04-03 03:52:28,15.08856336,0.0001404,53.2173,14.1745,76.4919,283.623,0.0014852,0.00023439,0.0,0 STARLINK-4693,1 53605U 22104T   23093.16144245  .00023439  00000-0  14852-2 0  9995,2 53605  53.2173  14.1745 0001404  76.4919 283.6230 15.08856336 33161,6917.83,95.437,540.667,538.724,0.0
53605.0,STARLINK-4693,PAYLOAD,2023-04-04 03:43:15,15.08869484,0.0001412,53.2174,9.7137,82.1765,277.9387,0.0017827,0.00028221,0.0,0 STARLINK-4693,1 53605U 22104T   23094.15503938  .00028221  00000-0  17827-2 0  9992,2 53605  53.2174   9.7137 0001412  82.1765 277.9387 15.08869484 33313,6917.79,95.436,540.632,538.678,0.0
53605.0,STARLINK-4693,PAYLOAD,2023-04-05 03:34:02,15.08853837,0.0001339,53.2176,5.2534,109.9876,250.126,0.001322,0.00020822,0.0,0 STARLINK-4693,1 53605U 22104T   23095.14864011  .00020822  00000-0  13220-2 0  9996,2 53605  53.2176   5.2534 0001339 109.9876 250.1260 15.08853837 33460,6917.838,95.437,540.629,538.777,0.0
53605.0,STARLINK-4693,PAYLOAD,2023-04-05 21:03:17,15.08839036,0.0001489,53.2178,1.9826,116.1338,243.9808,0.0012514,0.00019684,0.0,0 STARLINK-4693,1 53605U 22104T   23095.87728566  .00019684  00000-0  12514-2 0  9999,2 53605  53.2178   1.9826 0001489 116.1338 243.9808 15.08839036 33573,6917.883,95.438,540.778,538.718,0.0
53605.0,STARLINK-4693,PAYLOAD,2023-04-06 03:24:49,15.08846346,0.0001369,53.2177,0.7922,116.2537,243.8596,0.0012698,0.00019982,0.0,0 STARLINK-4693,1 53605U 22104T   23096.14224466  .00019982  00000-0  12698-2 0  9994,2 53605  53.2177   0.7922 0001369 116.2537 243.8596 15.08846346 34302,6917.861,95.437,540.673,538.779,0.0
53605.0,STARLINK-4693,PAYLOAD,2023-04-06 17:43:18,15.08839317,0.0001419,53.2177,358.1154,94.9371,265.1783,0.00073902,0.00011493,0.0,0 STARLINK-4693,1 53605U 22104T   23096.73840753  .00011493  00000-0  73902-3 0  9997,2 53605  53.2177 358.1154 0001419  94.9371 265.1783 15.08839317 33701,6917.882,95.438,540.729,538.766,0.0
53605.0,STARLINK-4693,PAYLOAD,2023-04-07 03:15:37,15.08849259,0.0001234,53.2182,356.3317,85.7011,274.4122,0.0010481,0.00016436,0.0,0 STARLINK-4693,1 53605U 22104T   23097.13584748  .00016436  00000-0  10481-2 0  9995,2 53605  53.2182 356.3317 0001234  85.7011 274.4122 15.08849259 34451,6917.852,95.437,540.571,538.863,0.0
53605.0,STARLINK-4693,PAYLOAD,2023-04-07 20:44:51,15.0884746,0.0001391,53.2183,353.0579,106.4738,253.6407,0.00058482,9.034e-05,0.0,0 STARLINK-4693,1 53605U 22104T   23097.86448635  .00009034  00000-0  58482-3 0  9999,2 53605  53.2183 353.0579 0001391 106.4738 253.6407 15.08847460 33879,6917.858,95.437,540.685,538.76,0.0
53605.0,STARLINK-4693,PAYLOAD,2023-04-08 03:06:23,15.08861303,0.000108,53.2179,351.872,90.1588,269.9528,0.0010045,0.00015744,0.0,0 STARLINK-4693,1 53605U 22104T   23098.12944350  .00015744  00000-0  10045-2 0  9991,2 53605  53.2179 351.8720 0001080  90.1588 269.9528 15.08861303 33916,6917.815,95.436,540.427,538.933,0.0
53605.0,STARLINK-4693,PAYLOAD,2023-04-09 02:57:11,15.08842493,0.000123,53.2177,347.4117,90.657,269.4563,0.00054141,8.34e-05,0.0,0 STARLINK-4693,1 53605U 22104T   23099.12305027  .00008340  00000-0  54141-3 0  9994,2 53605  53.2177 347.4117 0001230  90.6570 269.4563 15.08842493 34068,6917.873,95.437,540.589,538.887,0.0
53605.0,STARLINK-4693,PAYLOAD,2023-04-10 01:12:35,15.08851826,0.0001361,53.2172,343.2491,96.5332,263.5815,0.00058884,9.099e-05,0.0,0 STARLINK-4693,1 53605U 22104T   23100.05040915  .00009099  00000-0  58884-3 0  9991,2 53605  53.2172 343.2491 0001361  96.5332 263.5815 15.08851826 34209,6917.844,95.437,540.651,538.768,0.0
53605.0,STARLINK-4693,PAYLOAD,2023-04-11 01:03:21,15.08850368,0.000135,53.2177,338.7855,100.9325,259.1819,0.00012208,1.656e-05,0.0,0 STARLINK-4693,1 53605U 22104T   23101.04400454  .00001656  00000-0  12208-3 0  9990,2 53605  53.2177 338.7855 0001350 100.9325 259.1819 15.08850368 34358,6917.849,95.437,540.648,538.78,0.0
